STARLINK-36836          
1 68065U 26041AB  26068.75002314 -.01632614  76962-3 -41338-2 0  9991
2 68065  53.1593  61.8347 0000634  84.7438  62.7522 15.94940813  2380
STARLINK-36976          
1 68066U 26041AC  26068.75002314 -.01630753  76898-3 -41014-2 0  9993
2 68066  53.1592  61.8293 0000636  86.5257  63.5329 15.95065964  2381
STARLINK-36929          
1 68067U 26041AD  26068.75002314 -.01635243  77091-3 -41685-2 0  9993
2 68067  53.1591  61.8393 0000590  95.1098  50.1357 15.94815626  2380
STARLINK-36990          
1 68068U 26041AE  26068.75002314 -.01642049  77985-3 -41012-2 0  9992
2 68068  53.1591  61.8235 0000660  91.3554  61.4974 15.95196447  2383
GLOBAL-34               
1 68098U 26043A   26068.47466435  .00014018  00000+0  45822-3 0  9994
2 68098  42.0215  76.7399 0006884 289.2632  70.7460 15.31488019   538
ELECTRON R/B            
1 68099U 26043B   26068.35411052  .02880529  76312-5  13683-2 0  9991
2 68099  42.0141  75.7245 0170809 290.5430  67.7176 15.95333192   537
ELECTRON KICK STAGE R/B 
1 68100U 26043C   26068.48069855  .03047399  81342-5  19440-2 0  9995
2 68100  42.1196  75.0711 0150670  47.4339 313.9128 15.96396295   541
