CCSDS_OMM_VERS = 2.0
CREATION_DATE  = 
ORIGINATOR     = 

OBJECT_NAME    = STARLINK-36836
OBJECT_ID      = 2026-041AB
CENTER_NAME    = EARTH
REF_FRAME      = TEME
TIME_SYSTEM    = UTC
MEAN_ELEMENT_THEORY = SGP/SGP4

EPOCH          = 2026-03-09T18:00:01.999296
MEAN_MOTION    = 15.94940813
ECCENTRICITY   = .0000634
INCLINATION    = 53.1593
RA_OF_ASC_NODE = 61.8347
ARG_OF_PERICENTER = 84.7438
MEAN_ANOMALY   = 62.7522

EPHEMERIS_TYPE = 0
CLASSIFICATION_TYPE = U
NORAD_CAT_ID   = 68065
ELEMENT_SET_NO = 999
REV_AT_EPOCH   = 238
BSTAR          = -.41338E-2
MEAN_MOTION_DOT = -.1632614E-1
MEAN_MOTION_DDOT = .76962E-3

CCSDS_OMM_VERS = 2.0
CREATION_DATE  = 
ORIGINATOR     = 

OBJECT_NAME    = STARLINK-36976
OBJECT_ID      = 2026-041AC
CENTER_NAME    = EARTH
REF_FRAME      = TEME
TIME_SYSTEM    = UTC
MEAN_ELEMENT_THEORY = SGP/SGP4

EPOCH          = 2026-03-09T18:00:01.999296
MEAN_MOTION    = 15.95065964
ECCENTRICITY   = .0000636
INCLINATION    = 53.1592
RA_OF_ASC_NODE = 61.8293
ARG_OF_PERICENTER = 86.5257
MEAN_ANOMALY   = 63.5329

EPHEMERIS_TYPE = 0
CLASSIFICATION_TYPE = U
NORAD_CAT_ID   = 68066
ELEMENT_SET_NO = 999
REV_AT_EPOCH   = 238
BSTAR          = -.41014E-2
MEAN_MOTION_DOT = -.1630753E-1
MEAN_MOTION_DDOT = .76898E-3

CCSDS_OMM_VERS = 2.0
CREATION_DATE  = 
ORIGINATOR     = 

OBJECT_NAME    = STARLINK-36929
OBJECT_ID      = 2026-041AD
CENTER_NAME    = EARTH
REF_FRAME      = TEME
TIME_SYSTEM    = UTC
MEAN_ELEMENT_THEORY = SGP/SGP4

EPOCH          = 2026-03-09T18:00:01.999296
MEAN_MOTION    = 15.94815626
ECCENTRICITY   = .000059
INCLINATION    = 53.1591
RA_OF_ASC_NODE = 61.8393
ARG_OF_PERICENTER = 95.1098
MEAN_ANOMALY   = 50.1357

EPHEMERIS_TYPE = 0
CLASSIFICATION_TYPE = U
NORAD_CAT_ID   = 68067
ELEMENT_SET_NO = 999
REV_AT_EPOCH   = 238
BSTAR          = -.41685E-2
MEAN_MOTION_DOT = -.1635243E-1
MEAN_MOTION_DDOT = .77091E-3

CCSDS_OMM_VERS = 2.0
CREATION_DATE  = 
ORIGINATOR     = 

OBJECT_NAME    = STARLINK-36990
OBJECT_ID      = 2026-041AE
CENTER_NAME    = EARTH
REF_FRAME      = TEME
TIME_SYSTEM    = UTC
MEAN_ELEMENT_THEORY = SGP/SGP4

EPOCH          = 2026-03-09T18:00:01.999296
MEAN_MOTION    = 15.95196447
ECCENTRICITY   = .000066
INCLINATION    = 53.1591
RA_OF_ASC_NODE = 61.8235
ARG_OF_PERICENTER = 91.3554
MEAN_ANOMALY   = 61.4974

EPHEMERIS_TYPE = 0
CLASSIFICATION_TYPE = U
NORAD_CAT_ID   = 68068
ELEMENT_SET_NO = 999
REV_AT_EPOCH   = 238
BSTAR          = -.41012E-2
MEAN_MOTION_DOT = -.1642049E-1
MEAN_MOTION_DDOT = .77985E-3

CCSDS_OMM_VERS = 2.0
CREATION_DATE  = 
ORIGINATOR     = 

OBJECT_NAME    = GLOBAL-34
OBJECT_ID      = 2026-043A
CENTER_NAME    = EARTH
REF_FRAME      = TEME
TIME_SYSTEM    = UTC
MEAN_ELEMENT_THEORY = SGP/SGP4

EPOCH          = 2026-03-09T11:23:30.999840
MEAN_MOTION    = 15.31488019
ECCENTRICITY   = .00068849
INCLINATION    = 42.0215
RA_OF_ASC_NODE = 76.7399
ARG_OF_PERICENTER = 289.2632
MEAN_ANOMALY   = 70.7460

EPHEMERIS_TYPE = 0
CLASSIFICATION_TYPE = U
NORAD_CAT_ID   = 68098
ELEMENT_SET_NO = 999
REV_AT_EPOCH   = 53
BSTAR          = .45822046E-3
MEAN_MOTION_DOT = .14018E-3
MEAN_MOTION_DDOT = 0

CCSDS_OMM_VERS = 2.0
CREATION_DATE  = 
ORIGINATOR     = 

OBJECT_NAME    = ELECTRON R/B
OBJECT_ID      = 2026-043B
CENTER_NAME    = EARTH
REF_FRAME      = TEME
TIME_SYSTEM    = UTC
MEAN_ELEMENT_THEORY = SGP/SGP4

EPOCH          = 2026-03-09T08:29:55.148928
MEAN_MOTION    = 15.95333192
ECCENTRICITY   = .0170809
INCLINATION    = 42.0141
RA_OF_ASC_NODE = 75.7245
ARG_OF_PERICENTER = 290.5430
MEAN_ANOMALY   = 67.7176

EPHEMERIS_TYPE = 0
CLASSIFICATION_TYPE = U
NORAD_CAT_ID   = 68099
ELEMENT_SET_NO = 999
REV_AT_EPOCH   = 53
BSTAR          = .13683E-2
MEAN_MOTION_DOT = .2880529E-1
MEAN_MOTION_DDOT = .76312E-5

CCSDS_OMM_VERS = 2.0
CREATION_DATE  = 
ORIGINATOR     = 

OBJECT_NAME    = ELECTRON KICK STAGE R/B
OBJECT_ID      = 2026-043C
CENTER_NAME    = EARTH
REF_FRAME      = TEME
TIME_SYSTEM    = UTC
MEAN_ELEMENT_THEORY = SGP/SGP4

EPOCH          = 2026-03-09T11:32:12.354720
MEAN_MOTION    = 15.96396295
ECCENTRICITY   = .015067
INCLINATION    = 42.1196
RA_OF_ASC_NODE = 75.0711
ARG_OF_PERICENTER = 47.4339
MEAN_ANOMALY   = 313.9128

EPHEMERIS_TYPE = 0
CLASSIFICATION_TYPE = U
NORAD_CAT_ID   = 68100
ELEMENT_SET_NO = 999
REV_AT_EPOCH   = 54
BSTAR          = .19440022E-2
MEAN_MOTION_DOT = .3047399E-1
MEAN_MOTION_DDOT = .8134171E-5

